EUTELSAT 115 WEST B     
1 40425U 15010B   25198.22082388 -.00000018  00000+0  00000+0 0  9998
2 40425   0.0099 135.1785 0000446  95.9525  28.7536  1.00273576 38074
EUTELSAT 8 WEST B       
1 40875U 15039B   25197.91334715 -.00000058  00000+0  00000+0 0  9991
2 40875   0.0627   6.4319 0003703 107.0164 142.3360  1.00271929 36296
EUTELSAT 9B             
1 41310U 16005A   25197.91672426  .00000069  00000+0  00000+0 0  9995
2 41310   0.0374  65.3026 0001173  48.6026 160.0794  1.00270858 34752
EUTELSAT 65 WEST A      
1 41382U 16014A   25197.90199378 -.00000268  00000+0  00000+0 0  9995
2 41382   0.0657 317.8573 0002216 163.8901  72.7148  1.00268167 34176
EUTELSAT 117 WEST B     
1 41589U 16038B   25196.03572354 -.00000003  00000+0  00000+0 0  9999
2 41589   0.0133 132.8867 0000157  21.0218  35.0810  1.00270415 33281
EUTELSAT 172B           
1 42741U 17029B   25198.16323310  .00000001  00000+0  00000+0 0  9990
2 42741   0.0156  78.5982 0000269 141.6684 305.7288  1.00269796 30352
EUTELSAT 7C             
1 44334U 19034B   25197.55929461  .00000056  00000+0  00000+0 0  9999
2 44334   0.0722 194.8656 0003310 266.3060  41.8095  1.00269961  3475
EUTELSAT 5 WEST B       
1 44624U 19067A   25197.91395382 -.00000035  00000+0  00000+0 0  9994
2 44624   0.0922 311.6529 0003129 165.8549 141.4871  1.00271548 21079
